{
    "links": {
        "self": "http://www.neowsapp.com/rest/v1/neo/3778655?api_key=iIulBulltgU6a56xZRHN4H3l9WmuAYTsLGpBGhQ2"
    },
    "id": "3778655",
    "neo_reference_id": "3778655",
    "name": "(2017 OL19)",
    "designation": "2017 OL19",
    "nasa_jpl_url": "http://ssd.jpl.nasa.gov/sbdb.cgi?sstr=3778655",
    "absolute_magnitude_h": 23.6,
    "estimated_diameter": {
        "kilometers": {
            "estimated_diameter_min": 0.0506471459,
            "estimated_diameter_max": 0.1132504611
        },
        "meters": {
            "estimated_diameter_min": 50.6471458835,
            "estimated_diameter_max": 113.2504610618
        },
        "miles": {
            "estimated_diameter_min": 0.0314706677,
            "estimated_diameter_max": 0.0703705522
        },
        "feet": {
            "estimated_diameter_min": 166.1651821003,
            "estimated_diameter_max": 371.5566426699
        }
    },
    "is_potentially_hazardous_asteroid": false,
    "close_approach_data": [
        {
            "close_approach_date": "2017-07-12",
            "close_approach_date_full": "2017-Jul-12 08:15",
            "epoch_date_close_approach": 1499847300000,
            "relative_velocity": {
                "kilometers_per_second": "11.9840576684",
                "kilometers_per_hour": "43142.6076060978",
                "miles_per_hour": "26807.1385983556"
            },
            "miss_distance": {
                "astronomical": "0.0222647992",
                "lunar": "8.6610068888",
                "kilometers": "3330766.536297704",
                "miles": "2069642.3550641552"
            },
            "orbiting_body": "Earth"
        }
    ],
    "orbital_data": {
        "orbit_id": "3",
        "orbit_determination_date": "2017-08-09 06:17:19",
        "first_observation_date": "2017-07-26",
        "last_observation_date": "2017-07-30",
        "data_arc_in_days": 4,
        "observations_used": 16,
        "orbit_uncertainty": "8",
        "minimum_orbit_intersection": ".0020076",
        "jupiter_tisserand_invariant": "5.329",
        "epoch_osculation": "2457962.5",
        "eccentricity": ".1303087098603552",
        "semi_major_axis": "1.166433075945473",
        "inclination": "22.37877157656206",
        "ascending_node_longitude": "288.7298849339998",
        "orbital_period": "460.1380696151535",
        "perihelion_distance": "1.014436686680573",
        "perihelion_argument": "4.03529976405988",
        "aphelion_distance": "1.318429465210374",
        "perihelion_time": "2457950.822274050257",
        "mean_anomaly": "9.136347586765796",
        "mean_motion": ".7823738650903062",
        "equinox": "J2000",
        "orbit_class": {
            "orbit_class_type": "APO",
            "orbit_class_description": "Near-Earth asteroid orbits which cross the Earth’s orbit similar to that of 1862 Apollo",
            "orbit_class_range": "a (semi-major axis) > 1.0 AU; q (perihelion) < 1.017 AU"
        }
    },
    "is_sentry_object": false
}